COSMOS 2600             
1 67674U 26023A   26064.16302729  .00081567  00000+0  37695-3 0  9990
2 67674  96.6431 139.9490 0002127 355.3834   4.7417 15.83290051  4336
2026-023B               
1 67675U 26023B   26063.39805439  .00017809  00000+0  75835-3 0  9997
2 67675  96.6368 136.9588 0019232 149.8660 210.3690 15.22849981  4051
2026-023C               
1 67676U 26023C   26063.46244054  .00018268  00000+0  77493-3 0  9998
2 67676  96.6403 137.0391 0020297 140.0758 220.1978 15.22954337  4229
2026-023D               
1 67677U 26023D   26063.92491277  .00014887  00000+0  63533-3 0  9994
2 67677  96.6432 137.4345 0020577 143.3673 216.8977 15.22785056  4128
2026-023E               
1 67678U 26023E   26064.11993142  .00017584  00000+0  74582-3 0  9998
2 67678  96.6324 137.5890 0020340 142.1593 218.1081 15.22965416  4155
2026-023F               
1 67679U 26023F   26064.11736666  .00015709  00000+0  66306-3 0  9997
2 67679  96.6331 140.0891 0022189 137.0927 223.2048 15.23114746  4143
2026-023G               
1 67680U 26023G   26064.18378464  .00016712  00000+0  70523-3 0  9995
2 67680  96.6259 140.1288 0023698 133.4374 226.8842 15.23078640  4151
2026-023H               
1 67681U 26023H   26064.18392943  .00014555  00000+0  61593-3 0  9994
2 67681  96.6404 140.1611 0023810 132.8410 227.4834 15.23007120  4157
2026-023J               
1 67682U 26023J   26064.18273610  .00015659  00000+0  66030-3 0  9991
2 67682  96.6358 140.1651 0023892 129.6603 230.6749 15.23111312  4158
ISS OBJECT XZ           
1 67683U 98067XZ  26063.31738248  .00052289  00000+0  87421-3 0  9993
2 67683  51.6304  98.5346 0009491 167.7937 192.3284 15.51337660  3952
GXIBA-1                 
1 67684U 98067YA  26064.06987840  .00079615  00000+0  12232-2 0  9990
2 67684  51.6301  94.5596 0010898 160.3519 199.7893 15.53491621  4072
CORAL                   
1 67685U 98067YB  26064.08693506  .00047663  00000+0  78666-3 0  9998
2 67685  51.6309  94.6739 0011365 166.7274 193.4017 15.51717466  4074
ISS OBJECT YC           
1 67686U 98067YC  26064.08285944  .00055661  00000+0  90337-3 0  9998
2 67686  51.6311  94.6478 0007744 134.4448 225.7176 15.52157473  4071
LEOPARD                 
1 67687U 98067YD  26063.31561112  .00056781  00000+0  94368-3 0  9990
2 67687  51.6306  98.5236 0007781 136.2386 223.9221 15.51484974  3879
ISS OBJECT YE           
1 67688U 98067YE  26063.50513603  .00064836  00000+0  10599-2 0  9997
2 67688  51.6315  97.5383 0007786 134.7310 225.4314 15.51890022  3906
PRC TEST SPACECRAFT 4   
1 67689U 26024A   26064.13897088  .00000189  00000+0  42582-4 0  9994
2 67689  49.9860  44.1334 0006097 342.6403  17.4329 14.91683854  3904
CZ-2F R/B               
1 67690U 26024B   26064.14384343  .00022408  00000+0  41019-3 0  9993
2 67690  49.9876  37.3952 0174900 256.0388 102.1067 15.34122748  3990
