[{"OBJECT_NAME":"COSMOS 2600","OBJECT_ID":"2026-023A","EPOCH":"2026-03-05T03:54:45.557856","MEAN_MOTION":15.83290051,"ECCENTRICITY":0.0002127,"INCLINATION":96.6431,"RA_OF_ASC_NODE":139.949,"ARG_OF_PERICENTER":355.3834,"MEAN_ANOMALY":4.7417,"EPHEMERIS_TYPE":0,"CLASSIFICATION_TYPE":"U","NORAD_CAT_ID":67674,"ELEMENT_SET_NO":999,"REV_AT_EPOCH":433,"BSTAR":0.00037695,"MEAN_MOTION_DOT":0.00081567,"MEAN_MOTION_DDOT":0},{"OBJECT_NAME":"2026-023B","OBJECT_ID":"2026-023B","EPOCH":"2026-03-04T09:33:11.899296","MEAN_MOTION":15.22849981,"ECCENTRICITY":0.00192324,"INCLINATION":96.6368,"RA_OF_ASC_NODE":136.9588,"ARG_OF_PERICENTER":149.866,"MEAN_ANOMALY":210.369,"EPHEMERIS_TYPE":0,"CLASSIFICATION_TYPE":"U","NORAD_CAT_ID":67675,"ELEMENT_SET_NO":999,"REV_AT_EPOCH":405,"BSTAR":0.00075835034,"MEAN_MOTION_DOT":0.00017809,"MEAN_MOTION_DDOT":0},{"OBJECT_NAME":"2026-023C","OBJECT_ID":"2026-023C","EPOCH":"2026-03-04T11:05:54.862656","MEAN_MOTION":15.22954337,"ECCENTRICITY":0.00202975,"INCLINATION":96.6403,"RA_OF_ASC_NODE":137.0391,"ARG_OF_PERICENTER":140.0758,"MEAN_ANOMALY":220.1978,"EPHEMERIS_TYPE":0,"CLASSIFICATION_TYPE":"U","NORAD_CAT_ID":67676,"ELEMENT_SET_NO":999,"REV_AT_EPOCH":422,"BSTAR":0.00077492623,"MEAN_MOTION_DOT":0.00018268,"MEAN_MOTION_DDOT":0},{"OBJECT_NAME":"2026-023D","OBJECT_ID":"2026-023D","EPOCH":"2026-03-04T22:11:52.463328","MEAN_MOTION":15.22785056,"ECCENTRICITY":0.0020577,"INCLINATION":96.6432,"RA_OF_ASC_NODE":137.4345,"ARG_OF_PERICENTER":143.3673,"MEAN_ANOMALY":216.8977,"EPHEMERIS_TYPE":0,"CLASSIFICATION_TYPE":"U","NORAD_CAT_ID":67677,"ELEMENT_SET_NO":999,"REV_AT_EPOCH":412,"BSTAR":0.00063533,"MEAN_MOTION_DOT":0.00014887,"MEAN_MOTION_DDOT":0},{"OBJECT_NAME":"2026-023E","OBJECT_ID":"2026-023E","EPOCH":"2026-03-05T02:52:42.074688","MEAN_MOTION":15.22965416,"ECCENTRICITY":0.002034,"INCLINATION":96.6324,"RA_OF_ASC_NODE":137.589,"ARG_OF_PERICENTER":142.1593,"MEAN_ANOMALY":218.1081,"EPHEMERIS_TYPE":0,"CLASSIFICATION_TYPE":"U","NORAD_CAT_ID":67678,"ELEMENT_SET_NO":999,"REV_AT_EPOCH":415,"BSTAR":0.00074582,"MEAN_MOTION_DOT":0.00017584,"MEAN_MOTION_DDOT":0},{"OBJECT_NAME":"2026-023F","OBJECT_ID":"2026-023F","EPOCH":"2026-03-05T02:49:00.479424","MEAN_MOTION":15.23114746,"ECCENTRICITY":0.0022189,"INCLINATION":96.6331,"RA_OF_ASC_NODE":140.0891,"ARG_OF_PERICENTER":137.0927,"MEAN_ANOMALY":223.2048,"EPHEMERIS_TYPE":0,"CLASSIFICATION_TYPE":"U","NORAD_CAT_ID":67679,"ELEMENT_SET_NO":999,"REV_AT_EPOCH":414,"BSTAR":0.00066306,"MEAN_MOTION_DOT":0.00015709,"MEAN_MOTION_DDOT":0},{"OBJECT_NAME":"2026-023G","OBJECT_ID":"2026-023G","EPOCH":"2026-03-05T04:24:38.992896","MEAN_MOTION":15.2307864,"ECCENTRICITY":0.0023698,"INCLINATION":96.6259,"RA_OF_ASC_NODE":140.1288,"ARG_OF_PERICENTER":133.4374,"MEAN_ANOMALY":226.8842,"EPHEMERIS_TYPE":0,"CLASSIFICATION_TYPE":"U","NORAD_CAT_ID":67680,"ELEMENT_SET_NO":999,"REV_AT_EPOCH":415,"BSTAR":0.00070523,"MEAN_MOTION_DOT":0.00016712,"MEAN_MOTION_DDOT":0},{"OBJECT_NAME":"2026-023H","OBJECT_ID":"2026-023H","EPOCH":"2026-03-05T04:24:51.502752","MEAN_MOTION":15.2300712,"ECCENTRICITY":0.002381,"INCLINATION":96.6404,"RA_OF_ASC_NODE":140.1611,"ARG_OF_PERICENTER":132.841,"MEAN_ANOMALY":227.4834,"EPHEMERIS_TYPE":0,"CLASSIFICATION_TYPE":"U","NORAD_CAT_ID":67681,"ELEMENT_SET_NO":999,"REV_AT_EPOCH":415,"BSTAR":0.00061593,"MEAN_MOTION_DOT":0.00014555,"MEAN_MOTION_DDOT":0},{"OBJECT_NAME":"2026-023J","OBJECT_ID":"2026-023J","EPOCH":"2026-03-05T04:23:08.399040","MEAN_MOTION":15.23111312,"ECCENTRICITY":0.0023892,"INCLINATION":96.6358,"RA_OF_ASC_NODE":140.1651,"ARG_OF_PERICENTER":129.6603,"MEAN_ANOMALY":230.6749,"EPHEMERIS_TYPE":0,"CLASSIFICATION_TYPE":"U","NORAD_CAT_ID":67682,"ELEMENT_SET_NO":999,"REV_AT_EPOCH":415,"BSTAR":0.0006603,"MEAN_MOTION_DOT":0.00015659,"MEAN_MOTION_DDOT":0},{"OBJECT_NAME":"ISS OBJECT XZ","OBJECT_ID":"1998-067XZ","EPOCH":"2026-03-04T07:37:01.846272","MEAN_MOTION":15.5133766,"ECCENTRICITY":0.00094914,"INCLINATION":51.6304,"RA_OF_ASC_NODE":98.5346,"ARG_OF_PERICENTER":167.7937,"MEAN_ANOMALY":192.3284,"EPHEMERIS_TYPE":0,"CLASSIFICATION_TYPE":"U","NORAD_CAT_ID":67683,"ELEMENT_SET_NO":999,"REV_AT_EPOCH":395,"BSTAR":0.00087420501,"MEAN_MOTION_DOT":0.00052289,"MEAN_MOTION_DDOT":0},{"OBJECT_NAME":"GXIBA-1","OBJECT_ID":"1998-067YA","EPOCH":"2026-03-05T01:40:37.493760","MEAN_MOTION":15.53491621,"ECCENTRICITY":0.0010898,"INCLINATION":51.6301,"RA_OF_ASC_NODE":94.5596,"ARG_OF_PERICENTER":160.3519,"MEAN_ANOMALY":199.7893,"EPHEMERIS_TYPE":0,"CLASSIFICATION_TYPE":"U","NORAD_CAT_ID":67684,"ELEMENT_SET_NO":999,"REV_AT_EPOCH":407,"BSTAR":0.0012232,"MEAN_MOTION_DOT":0.00079615,"MEAN_MOTION_DDOT":0},{"OBJECT_NAME":"CORAL","OBJECT_ID":"1998-067YB","EPOCH":"2026-03-05T02:05:11.189184","MEAN_MOTION":15.51717466,"ECCENTRICITY":0.0011365,"INCLINATION":51.6309,"RA_OF_ASC_NODE":94.6739,"ARG_OF_PERICENTER":166.7274,"MEAN_ANOMALY":193.4017,"EPHEMERIS_TYPE":0,"CLASSIFICATION_TYPE":"U","NORAD_CAT_ID":67685,"ELEMENT_SET_NO":999,"REV_AT_EPOCH":407,"BSTAR":0.00078666,"MEAN_MOTION_DOT":0.00047663,"MEAN_MOTION_DDOT":0},{"OBJECT_NAME":"ISS OBJECT YC","OBJECT_ID":"1998-067YC","EPOCH":"2026-03-05T01:59:19.055616","MEAN_MOTION":15.52157473,"ECCENTRICITY":0.0007744,"INCLINATION":51.6311,"RA_OF_ASC_NODE":94.6478,"ARG_OF_PERICENTER":134.4448,"MEAN_ANOMALY":225.7176,"EPHEMERIS_TYPE":0,"CLASSIFICATION_TYPE":"U","NORAD_CAT_ID":67686,"ELEMENT_SET_NO":999,"REV_AT_EPOCH":407,"BSTAR":0.00090337,"MEAN_MOTION_DOT":0.00055661,"MEAN_MOTION_DDOT":0},{"OBJECT_NAME":"LEOPARD","OBJECT_ID":"1998-067YD","EPOCH":"2026-03-04T07:34:28.800768","MEAN_MOTION":15.51484974,"ECCENTRICITY":0.00077812,"INCLINATION":51.6306,"RA_OF_ASC_NODE":98.5236,"ARG_OF_PERICENTER":136.2386,"MEAN_ANOMALY":223.9221,"EPHEMERIS_TYPE":0,"CLASSIFICATION_TYPE":"U","NORAD_CAT_ID":67687,"ELEMENT_SET_NO":999,"REV_AT_EPOCH":387,"BSTAR":0.00094368384,"MEAN_MOTION_DOT":0.00056781,"MEAN_MOTION_DDOT":0},{"OBJECT_NAME":"ISS OBJECT YE","OBJECT_ID":"1998-067YE","EPOCH":"2026-03-04T12:07:23.752992","MEAN_MOTION":15.51890022,"ECCENTRICITY":0.00077863,"INCLINATION":51.6315,"RA_OF_ASC_NODE":97.5383,"ARG_OF_PERICENTER":134.731,"MEAN_ANOMALY":225.4314,"EPHEMERIS_TYPE":0,"CLASSIFICATION_TYPE":"U","NORAD_CAT_ID":67688,"ELEMENT_SET_NO":999,"REV_AT_EPOCH":390,"BSTAR":0.0010599088,"MEAN_MOTION_DOT":0.00064836,"MEAN_MOTION_DDOT":0},{"OBJECT_NAME":"PRC TEST SPACECRAFT 4","OBJECT_ID":"2026-024A","EPOCH":"2026-03-05T03:20:07.084032","MEAN_MOTION":14.91683854,"ECCENTRICITY":0.0006097,"INCLINATION":49.986,"RA_OF_ASC_NODE":44.1334,"ARG_OF_PERICENTER":342.6403,"MEAN_ANOMALY":17.4329,"EPHEMERIS_TYPE":0,"CLASSIFICATION_TYPE":"U","NORAD_CAT_ID":67689,"ELEMENT_SET_NO":999,"REV_AT_EPOCH":390,"BSTAR":4.2582e-5,"MEAN_MOTION_DOT":1.89e-6,"MEAN_MOTION_DDOT":0},{"OBJECT_NAME":"CZ-2F R/B","OBJECT_ID":"2026-024B","EPOCH":"2026-03-05T03:27:08.072352","MEAN_MOTION":15.34122748,"ECCENTRICITY":0.01749,"INCLINATION":49.9876,"RA_OF_ASC_NODE":37.3952,"ARG_OF_PERICENTER":256.0388,"MEAN_ANOMALY":102.1067,"EPHEMERIS_TYPE":0,"CLASSIFICATION_TYPE":"U","NORAD_CAT_ID":67690,"ELEMENT_SET_NO":999,"REV_AT_EPOCH":399,"BSTAR":0.00041019,"MEAN_MOTION_DOT":0.00022408,"MEAN_MOTION_DDOT":0}]
